NORAD_CAT_ID,OBJECT_NAME,OBJECT_TYPE,EPOCH,MEAN_MOTION,ECCENTRICITY,INCLINATION,RA_OF_ASC_NODE,ARG_OF_PERICENTER,MEAN_ANOMALY,BSTAR,MEAN_MOTION_DOT,MEAN_MOTION_DDOT,TLE_LINE0,TLE_LINE1,TLE_LINE2,SEMIMAJOR_AXIS,PERIOD,APOGEE,PERIGEE,DECAYED
52124.0,STARLINK-3684,PAYLOAD,2022-10-13 15:41:02,15.08835308,0.0001974,53.2186,259.3296,48.1835,311.9326,0.00021044,3.062e-05,0.0,0 STARLINK-3684,1 52124U 22029AN  22286.65349974  .00003062  00000-0  21044-3 0  9991,2 52124  53.2186 259.3296 0001974  48.1835 311.9326 15.08835308 33133,6917.895,95.438,541.125,538.394,0.0
52124.0,STARLINK-3684,PAYLOAD,2022-10-14 04:24:06,15.08848291,0.0002,53.2175,256.9493,46.087,314.0287,0.00024576,3.626e-05,0.0,0 STARLINK-3684,1 52124U 22029AN  22287.18341425  .00003626  00000-0  24576-3 0  9992,2 52124  53.2175 256.9493 0002000  46.0870 314.0287 15.08848291 33214,6917.855,95.437,541.104,538.336,0.0
52124.0,STARLINK-3684,PAYLOAD,2022-10-14 07:34:53,15.08850109,0.0002026999999999,53.2176,256.3546,45.9263,314.1896,0.00026679,3.962e-05,0.0,0 STARLINK-3684,1 52124U 22029AN  22287.31589336  .00003962  00000-0  26679-3 0  9991,2 52124  53.2176 256.3546 0002027  45.9263 314.1896 15.08850109 33231,6917.849,95.437,541.117,538.312,0.0
52124.0,STARLINK-3684,PAYLOAD,2022-10-14 15:31:49,15.08845182,0.0002015,53.2176,254.8677,47.5805,312.5357,0.00013285,1.827e-05,0.0,0 STARLINK-3684,1 52124U 22029AN  22287.64709512  .00001827  00000-0  13285-3 0  9994,2 52124  53.2176 254.8677 0002015  47.5805 312.5357 15.08845182 33280,6917.865,95.437,541.123,538.336,0.0
52124.0,STARLINK-3684,PAYLOAD,2022-10-15 01:04:07,15.08855358,0.0001973,53.2175,253.0853,37.5269,322.5861,0.0002811,4.19e-05,0.0,0 STARLINK-3684,1 52124U 22029AN  22288.04452855  .00004190  00000-0  28110-3 0  9993,2 52124  53.2175 253.0853 0001973  37.5269 322.5861 15.08855358 33345,6917.833000000001,95.437,541.063,538.3340000000002,0.0
52124.0,STARLINK-3684,PAYLOAD,2022-10-16 04:05:40,15.08842558,0.0001851999999999,53.2184,248.0292,46.2191,313.8954,-3.5894e-05,-8.59e-06,0.0,0 STARLINK-3684,1 52124U 22029AN  22289.17060904 -.00000859  00000-0 -35894-4 0  9996,2 52124  53.2184 248.0292 0001852  46.2191 313.8954 15.08842558 33516,6917.873000000001,95.437,541.019,538.456,0.0
52124.0,STARLINK-3684,PAYLOAD,2022-10-16 07:16:26,15.08842728,0.000186,53.2171,247.4332,47.3371,312.7778,-3.1335e-05,-7.87e-06,0.0,0 STARLINK-3684,1 52124U 22029AN  22289.30308842 -.00000787  00000-0 -31335-4 0  9993,2 52124  53.2171 247.4332 0001860  47.3371 312.7778 15.08842728 33534,6917.871999999999,95.437,541.024,538.45,0.0
52124.0,STARLINK-3684,PAYLOAD,2022-10-17 07:07:13,15.08847307,0.000186,53.2181,242.974,44.8133,315.3009,3.4762e-05,2.65e-06,0.0,0 STARLINK-3684,1 52124U 22029AN  22290.29668624  .00000265  00000-0  34762-4 0  9996,2 52124  53.2181 242.9740 0001860  44.8133 315.3009 15.08847307 33686,6917.858,95.437,541.01,538.436,0.0
52124.0,STARLINK-3684,PAYLOAD,2022-10-17 13:28:46,15.08838185,0.0001865999999999,53.2178,241.7827,47.4958,312.6192,-3.5386000000000007e-06,-3.44e-06,0.0,0 STARLINK-3684,1 52124U 22029AN  22290.56165088 -.00000344  00000-0 -35386-5 0  9996,2 52124  53.2178 241.7827 0001866  47.4958 312.6192 15.08838185 33727,6917.886,95.438,541.0419999999998,538.46,0.0
52124.0,STARLINK-3684,PAYLOAD,2022-10-17 19:50:19,15.08837083,0.0001381,53.2168,240.5932,43.462,316.648,4.112e-06,-2.22e-06,0.0,0 STARLINK-3684,1 52124U 22029AN  22290.82661117 -.00000222  00000-0  41120-5 0  9996,2 52124  53.2168 240.5932 0001381  43.4620 316.6480 15.08837083 33768,6917.889,95.438,540.71,538.799,0.0
52124.0,STARLINK-3684,PAYLOAD,2022-10-18 05:22:39,15.08815811,0.0001693,53.2183,238.8101,51.4509,308.6635,0.00035321,5.334e-05,0.0,0 STARLINK-3684,1 52124U 22029AN  22291.22406323  .00005334  00000-0  35321-3 0  9999,2 52124  53.2183 238.8101 0001693  51.4509 308.6635 15.08815811 33829,6917.954000000002,95.439,540.991,538.648,0.0
52124.0,STARLINK-3684,PAYLOAD,2022-10-18 19:41:07,15.08822645,0.0001616,53.2181,236.1343,49.6276,310.4857,-1.1653e-05,-4.73e-06,0.0,0 STARLINK-3684,1 52124U 22029AN  22291.82023019 -.00000473  00000-0 -11653-4 0  9996,2 52124  53.2181 236.1343 0001616  49.6276 310.4857 15.08822645 33911,6917.933000000001,95.439,540.9159999999998,538.68,0.0
52124.0,STARLINK-3684,PAYLOAD,2022-10-19 06:48:49,15.08828402,0.0001631,53.2181,234.0525,49.7813,310.3322,7.4389e-06,-1.7e-06,0.0,0 STARLINK-3684,1 52124U 22029AN  22292.28391005 -.00000170  00000-0  74389-5 0  9999,2 52124  53.2181 234.0525 0001631  49.7813 310.3322 15.08828402 33985,6917.916,95.438,540.909,538.653,0.0
52124.0,STARLINK-3684,PAYLOAD,2022-10-20 05:04:13,15.0883806,0.0001808,53.2188,229.8913,51.0922,309.0231,0.00016003,2.26e-05,0.0,0 STARLINK-3684,1 52124U 22029AN  22293.21126310  .00002260  00000-0  16003-3 0  9996,2 52124  53.2188 229.8913 0001808  51.0922 309.0231 15.08838060 34120,6917.886,95.438,541.002,538.501,0.0
52124.0,STARLINK-3684,PAYLOAD,2022-10-20 13:01:08,15.08842784,0.0001766,53.2189,228.404,50.584,309.5308,0.00012219,1.657e-05,0.0,0 STARLINK-3684,1 52124U 22029AN  22293.54246023  .00001657  00000-0  12219-3 0  9990,2 52124  53.2189 228.4040 0001766  50.5840 309.5308 15.08842784 34176,6917.871999999999,95.437,540.9590000000002,538.515,0.0
52124.0,STARLINK-3684,PAYLOAD,2022-10-21 03:19:37,15.08833845,0.0001793,53.2184,225.7286,47.5819,312.5325,0.00015449,2.171e-05,0.0,0 STARLINK-3684,1 52124U 22029AN  22294.13862670  .00002171  00000-0  15449-3 0  9998,2 52124  53.2184 225.7286 0001793  47.5819 312.5325 15.08833845 34266,6917.899,95.438,541.005,538.524,0.0
52124.0,STARLINK-3684,PAYLOAD,2022-10-22 04:45:46,15.08844635,0.0001661,53.2185,220.9684,58.5969,301.5185,4.8029e-05,4.77e-06,0.0,0 STARLINK-3684,1 52124U 22029AN  22295.19845932  .00000477  00000-0  48029-4 0  9995,2 52124  53.2185 220.9684 0001661  58.5969 301.5185 15.08844635 34427,6917.866,95.437,540.88,538.582,0.0
52124.0,STARLINK-3684,PAYLOAD,2022-10-23 04:36:33,15.08849746,0.0001706,53.2184,216.509,58.3801,301.7358,0.00011546,1.55e-05,0.0,0 STARLINK-3684,1 52124U 22029AN  22296.19205056  .00001550  00000-0  11546-3 0  9999,2 52124  53.2184 216.5090 0001706  58.3801 301.7358 15.08849746 34579,6917.851,95.437,540.896,538.535,0.0
52124.0,STARLINK-3684,PAYLOAD,2022-10-24 04:27:19,15.08854239,0.0001792,53.2185,212.0494,54.1859,305.93,0.0001214,1.645e-05,0.0,0 STARLINK-3684,1 52124U 22029AN  22297.18564039  .00001645  00000-0  12140-3 0  9994,2 52124  53.2185 212.0494 0001792  54.1859 305.9300 15.08854239 34724,6917.837,95.437,540.942,538.462,0.0
52124.0,STARLINK-3684,PAYLOAD,2022-10-25 04:18:09,15.08815646,0.0001515,53.2181,207.5873,54.3396,305.7737,-0.00022747,-3.904e-05,0.0,0 STARLINK-3684,1 52124U 22029AN  22298.17928043 -.00003904  00000-0 -22747-3 0  9999,2 52124  53.2181 207.5873 0001515  54.3396 305.7737 15.08815646 34878,6917.955,95.439,540.868,538.7719999999998,0.0
52124.0,STARLINK-3684,PAYLOAD,2022-10-25 10:39:41,15.08826012,0.0001486,53.2186,206.3996,63.2984,296.816,-0.00011224,-2.073e-05,0.0,0 STARLINK-3684,1 52124U 22029AN  22298.44423358 -.00002073  00000-0 -11224-3 0  9992,2 52124  53.2186 206.3996 0001486  63.2984 296.8160 15.08826012 34919,6917.9230000000025,95.438,540.816,538.76,0.0
52124.0,STARLINK-3684,PAYLOAD,2022-10-25 18:36:37,15.08831615,0.0001356,53.2187,204.912,53.3714,306.7403,-0.00011158,-2.063e-05,0.0,0 STARLINK-3684,1 52124U 22029AN  22298.77543163 -.00002063  00000-0 -11158-3 0  9990,2 52124  53.2187 204.9120 0001356  53.3714 306.7403 15.08831615 34961,6917.906,95.438,540.7090000000002,538.8330000000002,0.0
52124.0,STARLINK-3684,PAYLOAD,2022-10-26 10:30:29,15.08828915,0.0001695,53.2182,201.9397,60.3079,299.8081,-3.2722e-05,-8.09e-06,0.0,0 STARLINK-3684,1 52124U 22029AN  22299.43783598 -.00000809  00000-0 -32722-4 0  9999,2 52124  53.2182 201.9397 0001695  60.3079 299.8081 15.08828915 35062,6917.9140000000025,95.438,540.952,538.607,0.0
52124.0,STARLINK-3684,PAYLOAD,2022-10-27 03:59:43,15.08834091,0.0001597,53.2181,198.6681,59.9335,300.1815,0.00036455,5.518e-05,0.0,0 STARLINK-3684,1 52124U 22029AN  22300.16647708  .00005518  00000-0  36455-3 0  9990,2 52124  53.2181 198.6681 0001597  59.9335 300.1815 15.08834091 35174,6917.898,95.438,540.868,538.659,0.0
52124.0,STARLINK-3684,PAYLOAD,2022-10-27 10:21:15,15.08843688,0.0001631999999999,53.2181,197.4792,58.8648,301.2504,0.00044702,6.834e-05,0.0,0 STARLINK-3684,1 52124U 22029AN  22300.43143100  .00006834  00000-0  44702-3 0  9993,2 52124  53.2181 197.4792 0001632  58.8648 301.2504 15.08843688 35213,6917.869000000002,95.437,540.863,538.605,0.0
52124.0,STARLINK-3684,PAYLOAD,2022-10-27 23:04:21,15.08844861,0.0002017,53.2176,195.1005,61.9622,298.1574,0.00060208,9.308e-05,0.0,0 STARLINK-3684,1 52124U 22029AN  22300.96135546  .00009308  00000-0  60208-3 0  9994,2 52124  53.2176 195.1005 0002017  61.9622 298.1574 15.08844861 35297,6917.866,95.437,541.126,538.335,0.0
52124.0,STARLINK-3684,PAYLOAD,2022-10-28 10:12:02,15.08856841,0.0001792,53.2172,193.0191,62.6662,297.4513,0.00034043,5.136e-05,0.0,0 STARLINK-3684,1 52124U 22029AN  22301.42502617  .00005136  00000-0  34043-3 0  9996,2 52124  53.2172 193.0191 0001792  62.6662 297.4513 15.08856841 35361,6917.829000000002,95.436,540.934,538.4540000000002,0.0
52124.0,STARLINK-3684,PAYLOAD,2022-10-29 02:05:53,15.08854443,0.0001814,53.2176,190.0457,67.9235,292.1949,6.311399999999999e-05,7.17e-06,0.0,0 STARLINK-3684,1 52124U 22029AN  22302.08742060  .00000717  00000-0  63114-4 0  9999,2 52124  53.2176 190.0457 0001814  67.9235 292.1949 15.08854443 35468,6917.8359999999975,95.437,540.956,538.446,0.0
52124.0,STARLINK-3684,PAYLOAD,2022-10-29 21:10:30,15.08852268,0.000165,53.2172,186.4761,70.8111,289.306,5.7457e-05,6.27e-06,0.0,0 STARLINK-3684,1 52124U 22029AN  22302.88229537  .00000627  00000-0  57457-4 0  9999,2 52124  53.2172 186.4761 0001650  70.8111 289.3060 15.08852268 35583,6917.843000000003,95.437,540.849,538.566,0.0
